{
  "norad_id": 48354,
  "name": "STARLINK-2674",
  "history": [
    {
      "epoch": "2026-03-28T18:54:12.567744",
      "apogee_km": 475.7680136781855,
      "perigee_km": 474.5590914607128,
      "latitude_deg": 7.05586319490486,
      "longitude_deg": 171.01396415987983,
      "semi_major_axis_km": 6853.300552569449,
      "eccentricity": 8.82e-05,
      "inclination_deg": 53.1575,
      "raan_deg": 269.4928,
      "arg_perigee_deg": 75.233,
      "mean_anomaly_deg": 284.8768,
      "mean_motion_rev_day": 15.30217254
    }
  ]
}